[{"OBJECT_NAME":"RESURS-DK 1","OBJECT_ID":"2006-021A","EPOCH":"2026-03-09T20:47:10.198464","MEAN_MOTION":15.12746011,"ECCENTRICITY":0.00018726,"INCLINATION":69.9317,"RA_OF_ASC_NODE":236.5664,"ARG_OF_PERICENTER":163.0233,"MEAN_ANOMALY":197.0996,"EPHEMERIS_TYPE":0,"CLASSIFICATION_TYPE":"U","NORAD_CAT_ID":29228,"ELEMENT_SET_NO":999,"REV_AT_EPOCH":8755,"BSTAR":0.00024045463,"MEAN_MOTION_DOT":4.119e-5,"MEAN_MOTION_DDOT":0},{"OBJECT_NAME":"STARLINK-2455","OBJECT_ID":"2021-027AB","EPOCH":"2026-03-10T00:00:02.999808","MEAN_MOTION":15.10495532,"ECCENTRICITY":0.00011292,"INCLINATION":53.0663,"RA_OF_ASC_NODE":150.1947,"ARG_OF_PERICENTER":69.2437,"MEAN_ANOMALY":1.9379,"EPHEMERIS_TYPE":0,"CLASSIFICATION_TYPE":"U","NORAD_CAT_ID":48117,"ELEMENT_SET_NO":999,"REV_AT_EPOCH":574,"BSTAR":0.0048102182,"MEAN_MOTION_DOT":0.00080749,"MEAN_MOTION_DDOT":0}]
